     2.00           NAVIGATION DATA                         RINEX VERSION / TYPE
Micdrop             IKOS CONSULTING     14-MAR-25 10:07     PGM / RUN BY / DATE 
CE FICHIER EST VRAIMENT STYLE                               COMMENT             
    7.4506E-09  1.4901E-08 -5.9605E-08 -1.1921E-07          ION ALPHA           
    9.2160E+04  1.3107E+05 -6.5536E+04 -5.2429E+05          ION BETA            
    0.000000000000E+00-1.776356839400E-15   520192      119 DELTA-UTC: A0,A1,T,W
    18                                                      LEAP SECONDS        
                                                            END OF HEADER       
24 21 07 24 01 00 48.0 1.850798726082E-04 1.341504685115E-11 0.000000000000E+00
    2.000000000000E+00-2.218750000000E+00 5.821313909662E-09 1.340188006518E+00
    2.048909664154E-08 1.127123110928E-02 4.434958100319E-06 5.153706825256E+03
    5.256000000000E+05-1.303851604462E-08-1.381048938163E+00 1.434236764908E-07
    9.343841046656E-01 2.764687500000E+02 7.456302319778E-01-8.732506601094E-09
   -2.453673633927E-10 0.000000000000E+00 0.000000000000E+00 0.000000000000E+00
    0.000000000000E+00 0.000000000000E+00 0.000000000000E+00 0.000000000000E+00
    5.256000000000E+05 0.000000000000E+00 0.000000000000E+00 0.000000000000E+00
15 21 07 24 01 00 48.0-1.334282569587E-04 2.614797267597E-12 0.000000000000E+00
    2.000000000000E+00-1.906250000000E+01 5.354508751068E-09 2.306147511181E+00
   -7.934868335724E-07 1.336100662593E-02 1.103989779949E-05 5.153653366089E+03
    5.256000000000E+05-2.682209014893E-07-2.475025081655E+00 1.769512891769E-07
    9.293472864962E-01 1.547187500000E+02 1.002337309224E+00-8.395349700013E-09
    6.660991742757E-10 0.000000000000E+00 0.000000000000E+00 0.000000000000E+00
    0.000000000000E+00 0.000000000000E+00 0.000000000000E+00 0.000000000000E+00
    5.256000000000E+05 0.000000000000E+00 0.000000000000E+00 0.000000000000E+00
12 21 07 24 01 00 48.0-7.282011210918E-05-5.343281372916E-12 0.000000000000E+00
    2.000000000000E+00 5.434375000000E+01 3.939806965917E-09-3.793697299520E-01
    2.736225724220E-06 8.270366932265E-03 1.226738095284E-05 5.153709539413E+03
    5.256000000000E+05 1.210719347000E-07-1.907245067270E-01 1.564621925354E-07
    9.731794779058E-01 1.497187500000E+02 1.227434657637E+00-7.541742715285E-09
   -7.275303045574E-10 0.000000000000E+00 0.000000000000E+00 0.000000000000E+00
    0.000000000000E+00 0.000000000000E+00 0.000000000000E+00 0.000000000000E+00
    5.256000000000E+05 0.000000000000E+00 0.000000000000E+00 0.000000000000E+00
19 21 07 24 01 00 48.0 3.025028854609E-05 5.002220859751E-12 0.000000000000E+00
    2.000000000000E+00 1.671562500000E+02 3.791229348491E-09-6.454925151485E-01
    8.979812264442E-06 9.294606512412E-03 4.811212420464E-06 5.153650566101E+03
    5.256000000000E+05-2.980232238770E-08 8.902534326174E-01 1.620501279831E-07
    9.803415122790E-01 2.997187500000E+02 1.897067193629E+00-7.959974422028E-09
    4.057311860468E-10 0.000000000000E+00 0.000000000000E+00 0.000000000000E+00
    1.000000000000E+00 0.000000000000E+00 0.000000000000E+00 0.000000000000E+00
    5.256000000000E+05 0.000000000000E+00 0.000000000000E+00 0.000000000000E+00
23 21 07 24 01 00 48.0 8.049653843045E-05-5.115907697473E-12 0.000000000000E+00
    2.000000000000E+00-1.510000000000E+02 4.211246843906E-09 5.760494514119E-01
   -7.830560207367E-06 1.444158726372E-03 8.873641490936E-06 5.153668893814E+03
    5.256000000000E+05 1.490116119385E-08 2.853144696906E+00-2.235174179077E-08
    9.652991931803E-01 2.106875000000E+02 2.633884173654E+00-7.879613931834E-09
   -8.928943354902E-12 0.000000000000E+00 0.000000000000E+00 0.000000000000E+00
    0.000000000000E+00 0.000000000000E+00 0.000000000000E+00 0.000000000000E+00
    5.256000000000E+05 0.000000000000E+00 0.000000000000E+00 0.000000000000E+00
13 21 07 24 01 00 48.0 1.617120578885E-04 5.115907697473E-12 0.000000000000E+00
    2.000000000000E+00 1.287500000000E+01 4.550546691392E-09 2.652367075655E+00
    6.463378667831E-07 5.151322926395E-03 9.324401617050E-06 5.153677221298E+03
    5.256000000000E+05-3.352761268616E-08-2.224891953029E+00-5.029141902924E-08
    9.681377311654E-01 2.045312500000E+02 9.563938797925E-01-7.720321582383E-09
    7.600316583693E-10 0.000000000000E+00 0.000000000000E+00 0.000000000000E+00
    0.000000000000E+00 0.000000000000E+00 0.000000000000E+00 0.000000000000E+00
    5.256000000000E+05 0.000000000000E+00 0.000000000000E+00 0.000000000000E+00
10 21 07 24 01 00 48.0-1.680604182184E-04-7.617018127348E-12 0.000000000000E+00
    2.000000000000E+00-1.464687500000E+02 4.070526696633E-09-1.016713137475E+00
   -7.759779691696E-06 6.768828839995E-03 8.819624781609E-06 5.153681869507E+03
    5.256000000000E+05 7.823109626770E-08 2.876919617284E+00-8.568167686462E-08
    9.703065013662E-01 2.135000000000E+02-2.575203985480E+00-7.726750421598E-09
    7.750322832055E-11 0.000000000000E+00 0.000000000000E+00 0.000000000000E+00
    0.000000000000E+00 0.000000000000E+00 0.000000000000E+00 0.000000000000E+00
    5.256000000000E+05 0.000000000000E+00 0.000000000000E+00 0.000000000000E+00
17 21 07 24 01 00 48.0 4.783896729350E-04 5.798028723802E-12 0.000000000000E+00
    2.000000000000E+00 1.595312500000E+02 3.678010346751E-09-3.056257126634E+00
    8.175149559975E-06 1.338758727070E-02 5.370005965233E-06 5.153637708664E+03
    5.256000000000E+05 2.831220626831E-07 8.451647789055E-01-7.078051567078E-08
    9.817949711300E-01 2.821562500000E+02-1.561838087957E+00-7.645318458201E-09
    3.328710082708E-10 0.000000000000E+00 0.000000000000E+00 0.000000000000E+00
    1.000000000000E+00 0.000000000000E+00 0.000000000000E+00 0.000000000000E+00
    5.256000000000E+05 0.000000000000E+00 0.000000000000E+00 0.000000000000E+00
28 21 07 24 01 00 48.0 5.325609818101E-04-6.707523425575E-12 0.000000000000E+00
    2.000000000000E+00 5.703125000000E+01 3.830159541519E-09-2.556556771446E+00
    2.875924110413E-06 1.747004396748E-02 1.170486211777E-05 5.153729286194E+03
    5.256000000000E+05 2.216547727585E-07-1.684696460084E-01 1.266598701477E-07
    9.723387827732E-01 1.596250000000E+02-1.343648018436E+00-7.182084876949E-09
   -6.260975080457E-10 0.000000000000E+00 0.000000000000E+00 0.000000000000E+00
    0.000000000000E+00 0.000000000000E+00 0.000000000000E+00 0.000000000000E+00
    5.256000000000E+05 0.000000000000E+00 0.000000000000E+00 0.000000000000E+00
25 21 07 24 01 00 48.0 1.787678338587E-04 6.593836587854E-12 0.000000000000E+00
    2.000000000000E+00 3.646875000000E+01 4.201603585083E-09-5.877986980266E-01
    1.845881342888E-06 9.822463616729E-03 1.181103289127E-05 5.153599258423E+03
    5.256000000000E+05 2.272427082062E-07-2.648782734719E-01-8.009374141693E-08
    9.604947010311E-01 1.528437500000E+02 9.695448447716E-01-7.585673116591E-09
   -7.471739799382E-10 0.000000000000E+00 0.000000000000E+00 0.000000000000E+00
    0.000000000000E+00 0.000000000000E+00 0.000000000000E+00 0.000000000000E+00
    5.256000000000E+05 0.000000000000E+00 0.000000000000E+00 0.000000000000E+00
